IRIDIUM 112             
1 41925U 17003J   25311.61849807  .00000121  00000+0  35980-4 0  9999
2 41925  86.4011 180.8746 0002273  83.7432 276.4022 14.34218557461518
IRIDIUM 111             
1 41926U 17003K   25311.60581012  .00000256  00000+0  84491-4 0  9990
2 41926  86.4013 180.9454 0002095  82.8480 277.2953 14.34221380461490
IRIDIUM 113             
1 42803U 17039A   25311.72531319  .00000263  00000+0  86780-4 0  9993
2 42803  86.3983  54.7266 0002165  92.3006 267.8438 14.34219531439445
IRIDIUM 123             
1 42804U 17039B   25311.83656007  .00000236  00000+0  77156-4 0  9995
2 42804  86.3942  86.1710 0001763  88.2592 271.8806 14.34219166438224
IRIDIUM 120             
1 42805U 17039C   25311.71897066  .00000402  00000+0  13645-3 0  9992
2 42805  86.3973  54.5404 0001867 103.5837 256.5567 14.34218348439435
IRIDIUM 115             
1 42806U 17039D   25311.67587013  .00000688  00000+0  19867-3 0  9994
2 42806  86.4511  54.6568 0001479  93.7922 266.3448 14.43282180442314
IRIDIUM 118             
1 42807U 17039E   25311.79850640  .00000096  00000+0  27360-4 0  9998
2 42807  86.3942  86.1860 0002225  90.0943 270.0507 14.34218132438218
IRIDIUM 117             
1 42808U 17039F   25311.81752484  .00000165  00000+0  51750-4 0  9996
2 42808  86.3940  86.1376 0001802  87.3448 272.7954 14.34215599438240
